NORAD_CAT_ID,OBJECT_NAME,OBJECT_TYPE,EPOCH,MEAN_MOTION,ECCENTRICITY,INCLINATION,RA_OF_ASC_NODE,ARG_OF_PERICENTER,MEAN_ANOMALY,BSTAR,MEAN_MOTION_DOT,MEAN_MOTION_DDOT,TLE_LINE0,TLE_LINE1,TLE_LINE2,SEMIMAJOR_AXIS,PERIOD,APOGEE,PERIGEE,DECAYED
52340.0,STARLINK-3818,PAYLOAD,2024-02-20 11:22:50,15.08841449,0.0001628,53.219,317.9891,91.2832,268.8346,-2.5418e-06,-3.28e-06,0.0,0 STARLINK-3818,1 52340U 22045K   24051.47420080 -.00000328  00000-0 -25418-5 0  9994,2 52340  53.2190 317.9891 0001628  91.2832 268.8346 15.08841449102819,6917.876,95.437,540.867,538.615,0.0
52340.0,STARLINK-3818,PAYLOAD,2024-02-20 22:30:32,15.08846333,0.0001377,53.2172,315.9078,88.2243,271.8907,0.00023496,3.454e-05,0.0,0 STARLINK-3818,1 52340U 22045K   24051.93787873  .00003454  00000-0  23496-3 0  9994,2 52340  53.2172 315.9078 0001377  88.2243 271.8907 15.08846333102888,6917.861,95.437,540.679,538.773,0.0
52340.0,STARLINK-3818,PAYLOAD,2024-02-21 03:16:41,15.08853148,0.0001512,53.2176,315.014,96.217,263.8995,0.00035776,5.412e-05,0.0,0 STARLINK-3818,1 52340U 22045K   24052.13659638  .00005412  00000-0  35776-3 0  9994,2 52340  53.2176 315.0140 0001512  96.2170 263.8995 15.08853148102916,6917.84,95.437,540.751,538.659,0.0
52340.0,STARLINK-3818,PAYLOAD,2024-02-21 22:21:19,15.08840098,0.0001485,53.2171,311.4417,111.6035,248.5115,0.00014259,1.982e-05,0.0,0 STARLINK-3818,1 52340U 22045K   24052.93148097  .00001982  00000-0  14259-3 0  9995,2 52340  53.2171 311.4417 0001485 111.6035 248.5115 15.08840098103037,6917.88,95.438,540.772,538.718,0.0
52340.0,STARLINK-3818,PAYLOAD,2024-02-22 03:07:29,15.08842982,0.0001362,53.2171,310.5542,106.993,253.1211,0.00012819,1.753e-05,0.0,0 STARLINK-3818,1 52340U 22045K   24053.13020019  .00001753  00000-0  12819-3 0  9997,2 52340  53.2171 310.5542 0001362 106.9930 253.1211 15.08842982103067,6917.871,95.437,540.678,538.794,0.0
52340.0,STARLINK-3818,PAYLOAD,2024-02-22 22:12:06,15.08844903,0.0001372,53.217,306.9854,106.6062,253.508,8.4343e-05,1.055e-05,0.0,0 STARLINK-3818,1 52340U 22045K   24053.92507844  .00001055  00000-0  84343-4 0  9997,2 52340  53.2170 306.9854 0001372 106.6062 253.5080 15.08844903103181,6917.865,95.437,540.68,538.781,0.0
52340.0,STARLINK-3818,PAYLOAD,2024-02-23 09:19:48,15.08843933,0.0001253,53.2167,304.9044,83.7402,276.3732,1.529e-05,-4.5e-07,0.0,0 STARLINK-3818,1 52340U 22045K   24054.38875766 -.00000045  00000-0  15290-4 0  9993,2 52340  53.2167 304.9044 0001253  83.7402 276.3732 15.08843933103254,6917.868,95.437,540.6,538.867,0.0
52340.0,STARLINK-3818,PAYLOAD,2024-02-23 20:27:31,15.08831447,0.0001193,53.2169,302.8241,98.2231,261.8897,-3.9127e-05,-9.1e-06,0.0,0 STARLINK-3818,1 52340U 22045K   24054.85244689 -.00000910  00000-0 -39127-4 0  9996,2 52340  53.2169 302.8241 0001193  98.2231 261.8897 15.08831447103322,6917.907,95.438,540.597,538.946,0.0
52340.0,STARLINK-3818,PAYLOAD,2024-02-23 22:02:54,15.088306,0.0001256,53.217,302.5262,101.1056,259.0077,-4.7879e-05,-1.05e-05,0.0,0 STARLINK-3818,1 52340U 22045K   24054.91868722 -.00001050  00000-0 -47879-4 0  9992,2 52340  53.2170 302.5262 0001256 101.1056 259.0077 15.08830600103333,6917.909,95.438,540.643,538.905,0.0
52340.0,STARLINK-3818,PAYLOAD,2024-02-24 10:45:59,15.08840008,0.0001186,53.2162,300.1504,93.6896,266.4232,1.9152e-05,1.7e-07,0.0,0 STARLINK-3818,1 52340U 22045K   24055.44860394  .00000017  00000-0  19152-4 0  9991,2 52340  53.2162 300.1504 0001186  93.6896 266.4232 15.08840008103413,6917.88,95.438,540.566,538.925,0.0
52340.0,STARLINK-3818,PAYLOAD,2024-02-24 13:56:45,15.088366,0.0001145,53.2163,299.5559,102.8467,257.2653,8.8686e-05,1.124e-05,0.0,0 STARLINK-3818,1 52340U 22045K   24055.58108734  .00001124  00000-0  88686-4 0  9997,2 52340  53.2163 299.5559 0001145 102.8467 257.2653 15.08836600103437,6917.891,95.438,540.548,538.964,0.0
52340.0,STARLINK-3818,PAYLOAD,2024-02-25 09:01:23,15.08844884,0.0001104,53.2146,295.9875,96.4445,263.6673,0.00021453,3.129e-05,0.0,0 STARLINK-3818,1 52340U 22045K   24056.37596437  .00003129  00000-0  21453-3 0  9991,2 52340  53.2146 295.9875 0001104  96.4445 263.6673 15.08844884103557,6917.865,95.437,540.494,538.967,0.0
52340.0,STARLINK-3818,PAYLOAD,2024-02-25 20:09:05,15.08847904,0.000109,53.2145,293.9056,98.6726,261.4389,0.00033359,5.026e-05,0.0,0 STARLINK-3818,1 52340U 22045K   24056.83964373  .00005026  00000-0  33359-3 0  9996,2 52340  53.2145 293.9056 0001090  98.6726 261.4389 15.08847904103629,6917.856,95.437,540.475,538.967,0.0
52340.0,STARLINK-3818,PAYLOAD,2024-02-25 21:44:28,15.08848431,0.0001154,53.2148,293.6093,100.1862,259.926,0.00030278,4.535e-05,0.0,0 STARLINK-3818,1 52340U 22045K   24056.90588347  .00004535  00000-0  30278-3 0  9998,2 52340  53.2148 293.6093 0001154 100.1862 259.9260 15.08848431103638,6917.855,95.437,540.518,538.921,0.0
52340.0,STARLINK-3818,PAYLOAD,2024-02-26 00:55:14,15.08857555,0.0001055,53.2146,293.0118,95.3626,264.7487,0.00042788,6.532e-05,0.0,0 STARLINK-3818,1 52340U 22045K   24057.03835908  .00006532  00000-0  42788-3 0  9999,2 52340  53.2146 293.0118 0001055  95.3626 264.7487 15.08857555103655,6917.827,95.436,540.422,538.962,0.0
52340.0,STARLINK-3818,PAYLOAD,2024-02-26 19:59:52,15.08835825,0.0001591,53.2147,289.4414,115.9697,244.146,1.6758e-05,-2.1e-07,0.0,0 STARLINK-3818,1 52340U 22045K   24057.83324829 -.00000021  00000-0  16758-4 0  9999,2 52340  53.2147 289.4414 0001591 115.9697 244.1460 15.08835825103778,6917.893,95.438,540.859,538.658,0.0
52340.0,STARLINK-3818,PAYLOAD,2024-02-26 21:35:16,15.0883251,0.0001051,53.2141,289.1477,81.2478,278.8633,-2.689e-05,-7.16e-06,0.0,0 STARLINK-3818,1 52340U 22045K   24057.89949096 -.00000716  00000-0 -26890-4 0  9994,2 52340  53.2141 289.1477 0001051  81.2478 278.8633 15.08832510103786,6917.903,95.438,540.495,539.041,0.0
52340.0,STARLINK-3818,PAYLOAD,2024-02-27 08:42:58,15.0883564,0.0001147,53.2153,287.0649,83.9546,276.1577,0.00015088,2.114e-05,0.0,0 STARLINK-3818,1 52340U 22045K   24058.36317328  .00002114  00000-0  15088-3 0  9992,2 52340  53.2153 287.0649 0001147  83.9546 276.1577 15.08835640103851,6917.894,95.438,540.552,538.965,0.0
52340.0,STARLINK-3818,PAYLOAD,2024-02-27 21:26:03,15.08838735,0.0001094,53.2147,284.6858,81.2619,278.8497,0.00044147,6.745e-05,0.0,0 STARLINK-3818,1 52340U 22045K   24058.89309566  .00006745  00000-0  44147-3 0  9997,2 52340  53.2147 284.6858 0001094  81.2619 278.8497 15.08838735103939,6917.884,95.438,540.506,538.992,0.0
52340.0,STARLINK-3818,PAYLOAD,2024-02-28 00:36:49,15.08844414,0.0001141,53.2151,284.0906,83.9799,276.1323,0.00042884,6.545e-05,0.0,0 STARLINK-3818,1 52340U 22045K   24059.02557396  .00006545  00000-0  42884-3 0  9993,2 52340  53.2151 284.0906 0001141  83.9799 276.1323 15.08844414103955,6917.867,95.437,540.521,538.943,0.0
52340.0,STARLINK-3818,PAYLOAD,2024-02-28 21:16:50,15.08850202,0.0001155,53.2154,280.2237,84.4733,275.639,0.0003783,5.74e-05,0.0,0 STARLINK-3818,1 52340U 22045K   24059.88669132  .00005740  00000-0  37830-3 0  9990,2 52340  53.2154 280.2237 0001155  84.4733 275.6390 15.08850202104087,6917.849,95.437,540.513,538.915,0.0
52340.0,STARLINK-3818,PAYLOAD,2024-02-29 14:46:04,15.08845634,0.0001272,53.2163,276.952,90.4511,269.6627,0.00011198,1.495e-05,0.0,0 STARLINK-3818,1 52340U 22045K   24060.61533008  .00001495  00000-0  11198-3 0  9997,2 52340  53.2163 276.9520 0001272  90.4511 269.6627 15.08845634104196,6917.863,95.437,540.608,538.848,0.0
52340.0,STARLINK-3818,PAYLOAD,2024-02-29 21:07:36,15.08846196,0.0001181,53.2163,275.7637,87.3006,272.8122,9.9249e-05,1.292e-05,0.0,0 STARLINK-3818,1 52340U 22045K   24060.88028915  .00001292  00000-0  99249-4 0  9991,2 52340  53.2163 275.7637 0001181  87.3006 272.8122 15.08846196104230,6917.861,95.437,540.543,538.909,0.0
52340.0,STARLINK-3818,PAYLOAD,2024-03-01 06:39:55,15.08844746,0.0001119,53.2155,273.9786,84.05,276.062,6.415e-05,7.33e-06,0.0,0 STARLINK-3818,1 52340U 22045K   24061.27772858  .00000733  00000-0  64150-4 0  9999,2 52340  53.2155 273.9786 0001119  84.0500 276.0620 15.08844746104294,6917.866,95.437,540.505,538.957,0.0
52340.0,STARLINK-3818,PAYLOAD,2024-03-01 20:58:24,15.08841084,0.0001176,53.2172,271.3031,87.2397,272.873,1.5528e-05,-4.1e-07,0.0,0 STARLINK-3818,1 52340U 22045K   24061.87389253 -.00000041  00000-0  15528-4 0  9996,2 52340  53.2172 271.3031 0001176  87.2397 272.8730 15.08841084104388,6917.877,95.437,540.556,538.929,0.0
52340.0,STARLINK-3818,PAYLOAD,2024-03-02 19:13:48,15.08843095,0.0001134,53.2166,267.141,94.9582,265.154,8.7215e-05,1.101e-05,0.0,0 STARLINK-3818,1 52340U 22045K   24062.80125032  .00001101  00000-0  87215-4 0  9992,2 52340  53.2166 267.1410 0001134  94.9582 265.1540 15.08843095104524,6917.871,95.437,540.52,538.951,0.0
52340.0,STARLINK-3818,PAYLOAD,2024-03-02 23:59:57,15.08847751,0.0001161,53.2169,266.2475,91.8275,268.285,0.00011159,1.489e-05,0.0,0 STARLINK-3818,1 52340U 22045K   24062.99996636  .00001489  00000-0  11159-3 0  9990,2 52340  53.2169 266.2475 0001161  91.8275 268.2850 15.08847751104557,6917.857,95.437,540.525,538.919,0.0
52340.0,STARLINK-3818,PAYLOAD,2024-03-03 20:39:58,15.08843864,0.0001171,53.2161,262.3744,79.654,280.4584,0.00011265,1.506e-05,0.0,0 STARLINK-3818,1 52340U 22045K   24063.86109207  .00001506  00000-0  11265-3 0  9995,2 52340  53.2161 262.3744 0001171  79.6540 280.4584 15.08843864104680,6917.869,95.437,540.544,538.923,0.0
52340.0,STARLINK-3818,PAYLOAD,2024-03-03 22:15:21,15.0884256,0.0001177,53.2163,262.0771,84.1901,275.9225,9.5547e-05,1.233e-05,0.0,0 STARLINK-3818,1 52340U 22045K   24063.92733192  .00001233  00000-0  95547-4 0  9991,2 52340  53.2163 262.0771 0001177  84.1901 275.9225 15.08842560104691,6917.873,95.437,540.552,538.923,0.0
52340.0,STARLINK-3818,PAYLOAD,2024-03-04 12:33:49,15.08843236,0.0001226,53.2157,259.4067,96.177,263.9362,0.00012463,1.696e-05,0.0,0 STARLINK-3818,1 52340U 22045K   24064.52349006  .00001696  00000-0  12463-3 0  9993,2 52340  53.2157 259.4067 0001226  96.1770 263.9362 15.08843236104784,6917.87,95.437,540.584,538.887,0.0
